{
  "type": "FeatureCollection",
  "features": [
    {
      "type": "Feature",
      "properties": {
        "norad_id": 35602,
        "name": "COSMOS 2251 DEB",
        "group": "cosmos-2251-debris",
        "lat": -71.80035509790522,
        "lon": 112.7726493659628,
        "alt_km": 420.2654485286521,
        "timestamp": "2025-12-16T17:51:11.328693+00:00",
        "meta_object_name": "COSMOS 2251 DEB",
        "meta_object_id": "1993-036AMV",
        "meta_epoch": "2025-12-15T18:48:14.426784",
        "meta_mean_motion": 15.35191565,
        "meta_eccentricity": 0.00895684,
        "meta_inclination": 73.9934,
        "meta_ra_of_asc_node": 175.6651,
        "meta_arg_of_pericenter": 240.8119,
        "meta_mean_anomaly": 131.857,
        "meta_ephemeris_type": 0,
        "meta_classification_type": "U",
        "meta_norad_cat_id": 35602,
        "meta_element_set_no": 999,
        "meta_rev_at_epoch": 90138,
        "meta_bstar": 0.00037135789,
        "meta_mean_motion_dot": 0.00014455,
        "meta_mean_motion_ddot": 0,
        "tle_line1": "1 35602U 93036AMV 25349.78350031  .00014455  00000+0  37136-3 0  9998",
        "tle_line2": "2 35602  73.9934 175.6651 0089568 240.8119 131.8570 15.35191565901382"
      },
      "geometry": {
        "type": "Point",
        "coordinates": [
          112.7726493659628,
          -71.80035509790522
        ]
      }
    },
    {
      "type": "Feature",
      "properties": {
        "norad_id": 35605,
        "name": "COSMOS 2251 DEB",
        "group": "cosmos-2251-debris",
        "lat": -27.557325511493627,
        "lon": -40.742109963966136,
        "alt_km": 455.4031990637641,
        "timestamp": "2025-12-16T17:51:11.328704+00:00",
        "meta_object_name": "COSMOS 2251 DEB",
        "meta_object_id": "1993-036AMY",
        "meta_epoch": "2025-12-13T05:33:00.611712",
        "meta_mean_motion": 15.34448038,
        "meta_eccentricity": 0.00255309,
        "meta_inclination": 73.8715,
        "meta_ra_of_asc_node": 335.5566,
        "meta_arg_of_pericenter": 266.9711,
        "meta_mean_anomaly": 92.8571,
        "meta_ephemeris_type": 0,
        "meta_classification_type": "U",
        "meta_norad_cat_id": 35605,
        "meta_element_set_no": 999,
        "meta_rev_at_epoch": 65979,
        "meta_bstar": 0.010289697,
        "meta_mean_motion_dot": 0.0036361,
        "meta_mean_motion_ddot": 0,
        "tle_line1": "1 35605U 93036AMY 25347.23125708  .00363610  00000+0  10290-1 0  9990",
        "tle_line2": "2 35605  73.8715 335.5566 0025530 266.9711  92.8571 15.34448038659790"
      },
      "geometry": {
        "type": "Point",
        "coordinates": [
          -40.742109963966136,
          -27.557325511493627
        ]
      }
    },
    {
      "type": "Feature",
      "properties": {
        "norad_id": 35606,
        "name": "COSMOS 2251 DEB",
        "group": "cosmos-2251-debris",
        "lat": 73.04984992427867,
        "lon": 76.80989117077834,
        "alt_km": 1280.8688959243373,
        "timestamp": "2025-12-16T17:51:11.328714+00:00",
        "meta_object_name": "COSMOS 2251 DEB",
        "meta_object_id": "1993-036AMZ",
        "meta_epoch": "2025-12-15T07:23:01.893984",
        "meta_mean_motion": 13.41214459,
        "meta_eccentricity": 0.04573982,
        "meta_inclination": 73.8103,
        "meta_ra_of_asc_node": 6.7036,
        "meta_arg_of_pericenter": 212.0605,
        "meta_mean_anomaly": 145.1917,
        "meta_ephemeris_type": 0,
        "meta_classification_type": "U",
        "meta_norad_cat_id": 35606,
        "meta_element_set_no": 999,
        "meta_rev_at_epoch": 61074,
        "meta_bstar": 0.00058042329,
        "meta_mean_motion_dot": 5.74e-06,
        "meta_mean_motion_ddot": 0,
        "tle_line1": "1 35606U 93036AMZ 25349.30766081  .00000574  00000+0  58042-3 0  9992",
        "tle_line2": "2 35606  73.8103   6.7036 0457398 212.0605 145.1917 13.41214459610748"
      },
      "geometry": {
        "type": "Point",
        "coordinates": [
          76.80989117077834,
          73.04984992427867
        ]
      }
    },
    {
      "type": "Feature",
      "properties": {
        "norad_id": 35611,
        "name": "COSMOS 2251 DEB",
        "group": "cosmos-2251-debris",
        "lat": -46.97078019520202,
        "lon": 153.61737952411684,
        "alt_km": 652.0746606985249,
        "timestamp": "2025-12-16T17:51:11.328725+00:00",
        "meta_object_name": "COSMOS 2251 DEB",
        "meta_object_id": "1993-036ANE",
        "meta_epoch": "2025-12-14T22:03:55.318464",
        "meta_mean_motion": 14.72918088,
        "meta_eccentricity": 0.00215588,
        "meta_inclination": 74.0194,
        "meta_ra_of_asc_node": 175.0515,
        "meta_arg_of_pericenter": 247.96,
        "meta_mean_anomaly": 111.9283,
        "meta_ephemeris_type": 0,
        "meta_classification_type": "U",
        "meta_norad_cat_id": 35611,
        "meta_element_set_no": 999,
        "meta_rev_at_epoch": 87322,
        "meta_bstar": 0.0014598859,
        "meta_mean_motion_dot": 9.374e-05,
        "meta_mean_motion_ddot": 0,
        "tle_line1": "1 35611U 93036ANE 25348.91939026  .00009374  00000+0  14599-2 0  9990",
        "tle_line2": "2 35611  74.0194 175.0515 0021558 247.9600 111.9283 14.72918088873221"
      },
      "geometry": {
        "type": "Point",
        "coordinates": [
          153.61737952411684,
          -46.97078019520202
        ]
      }
    },
    {
      "type": "Feature",
      "properties": {
        "norad_id": 35614,
        "name": "COSMOS 2251 DEB",
        "group": "cosmos-2251-debris",
        "lat": -13.73009573411241,
        "lon": -44.329808542761924,
        "alt_km": 727.5250935314752,
        "timestamp": "2025-12-16T17:51:11.328735+00:00",
        "meta_object_name": "COSMOS 2251 DEB",
        "meta_object_id": "1993-036ANH",
        "meta_epoch": "2025-12-13T06:27:06.231168",
        "meta_mean_motion": 14.67025191,
        "meta_eccentricity": 0.00756959,
        "meta_inclination": 73.9589,
        "meta_ra_of_asc_node": 326.4366,
        "meta_arg_of_pericenter": 180.7813,
        "meta_mean_anomaly": 179.3251,
        "meta_ephemeris_type": 0,
        "meta_classification_type": "U",
        "meta_norad_cat_id": 35614,
        "meta_element_set_no": 999,
        "meta_rev_at_epoch": 87737,
        "meta_bstar": 0.0013853104,
        "meta_mean_motion_dot": 8.085e-05,
        "meta_mean_motion_ddot": 0,
        "tle_line1": "1 35614U 93036ANH 25347.26882212  .00008085  00000+0  13853-2 0  9994",
        "tle_line2": "2 35614  73.9589 326.4366 0075695 180.7813 179.3251 14.67025191877378"
      },
      "geometry": {
        "type": "Point",
        "coordinates": [
          -44.329808542761924,
          -13.73009573411241
        ]
      }
    },
    {
      "type": "Feature",
      "properties": {
        "norad_id": 35645,
        "name": "COSMOS 2251 DEB",
        "group": "cosmos-2251-debris",
        "lat": 59.65387993628284,
        "lon": -129.19102729979423,
        "alt_km": 759.2742651875733,
        "timestamp": "2025-12-16T17:51:11.328745+00:00",
        "meta_object_name": "COSMOS 2251 DEB",
        "meta_object_id": "1993-036ANL",
        "meta_epoch": "2025-12-15T06:26:03.005376",
        "meta_mean_motion": 14.45625308,
        "meta_eccentricity": 0.00696354,
        "meta_inclination": 73.9644,
        "meta_ra_of_asc_node": 82.996,
        "meta_arg_of_pericenter": 240.4421,
        "meta_mean_anomaly": 118.9784,
        "meta_ephemeris_type": 0,
        "meta_classification_type": "U",
        "meta_norad_cat_id": 35645,
        "meta_element_set_no": 999,
        "meta_rev_at_epoch": 86808,
        "meta_bstar": 0.0013484506,
        "meta_mean_motion_dot": 4.886e-05,
        "meta_mean_motion_ddot": 0,
        "tle_line1": "1 35645U 93036ANL 25349.26809034  .00004886  00000+0  13485-2 0  9997",
        "tle_line2": "2 35645  73.9644  82.9960 0069635 240.4421 118.9784 14.45625308868084"
      },
      "geometry": {
        "type": "Point",
        "coordinates": [
          -129.19102729979423,
          59.65387993628284
        ]
      }
    },
    {
      "type": "Feature",
      "properties": {
        "norad_id": 35646,
        "name": "COSMOS 2251 DEB",
        "group": "cosmos-2251-debris",
        "lat": -27.434261290826484,
        "lon": 41.03730482818119,
        "alt_km": 1449.9321292026798,
        "timestamp": "2025-12-16T17:51:11.328756+00:00",
        "meta_object_name": "COSMOS 2251 DEB",
        "meta_object_id": "1993-036ANM",
        "meta_epoch": "2025-12-15T23:10:17.358816",
        "meta_mean_motion": 13.40825911,
        "meta_eccentricity": 0.04566629,
        "meta_inclination": 73.872,
        "meta_ra_of_asc_node": 50.9103,
        "meta_arg_of_pericenter": 160.5551,
        "meta_mean_anomaly": 14.1916,
        "meta_ephemeris_type": 0,
        "meta_classification_type": "U",
        "meta_norad_cat_id": 35646,
        "meta_element_set_no": 999,
        "meta_rev_at_epoch": 81901,
        "meta_bstar": 0.00060262644,
        "meta_mean_motion_dot": 5.94e-06,
        "meta_mean_motion_ddot": 0,
        "tle_line1": "1 35646U 93036ANM 25349.96547869  .00000594  00000+0  60263-3 0  9999",
        "tle_line2": "2 35646  73.8720  50.9103 0456662 160.5551  14.1916 13.40825911819018"
      },
      "geometry": {
        "type": "Point",
        "coordinates": [
          41.03730482818119,
          -27.434261290826484
        ]
      }
    }
  ]
}